ICEYE-X50               
1 63255U 25052AX  26184.68646205  .00001620  00000+0  15210-3 0  9993
2 63255  97.6871  76.2639 0002778 123.8572 236.2913 14.95333144 71119
ICEYE-X51               
1 63257U 25052AZ  26183.79171026  .00003939  00000+0  31446-3 0  9994
2 63257  97.7586  78.8563 0001937  71.9517 288.1918 15.00859708 71147
ICEYE-X54               
1 64570U 25135AU  26184.62787197  .00003841  00000+0  35975-3 0  9993
2 64570  97.7743 298.8920 0001055 233.3935 126.7188 14.94645574 56359
ICEYE-X52               
1 64572U 25135AW  26184.61746002  .00002488  00000+0  24101-3 0  9999
2 64572  97.7767 298.6866 0000419 280.6397  79.4776 14.93623274 56331
ICEYE-X56               
1 64574U 25135AY  26184.62327341  .00003162  00000+0  28921-3 0  9997
2 64574  97.7768 299.4539 0000531 287.5691  72.5471 14.95710639 56383
ICEYE-X57               
1 64578U 25135BC  26184.60075431  .00005621  00000+0  44660-3 0  9999
2 64578  97.7996 301.1139 0002069  61.2372 298.9060 15.00862168 56489
ICEYE-X55               
1 64581U 25135BF  26184.62763395  .00003114  00000+0  28780-3 0  9998
2 64581  97.7764 299.2913 0001886 306.6368  53.4679 14.95307749 56370
ICEYE-X53               
1 64584U 25135BJ  26184.62464632  .00000813  00000+0  68689-4 0  9999
2 64584  97.7374 301.3372 0001468 164.3512 195.7757 15.00839712 56543
ICEYE-X58               
1 66751U 25276CP  26183.61750275  .00002975  00000+0  15213-3 0  9997
2 66751  97.4202 256.7551 0001995 289.5925  70.5094 15.17412464 32753
ICEYE-X59               
1 66752U 25276CQ  26183.47751404  .00005154  00000+0  40748-3 0  9990
2 66752  97.4395 254.1257 0000565 266.7298  93.3862 15.01058515 32565
