{
 "generated_at": "2026-07-04T07:46:40Z",
 "sources": [
  {
   "name": "CelesTrak",
   "url": "https://celestrak.org/NORAD/elements/",
   "license": "frei verfügbar; Attribution. Ursprünglich USSPACECOM/Space-Track."
  },
  {
   "name": "GCAT (J. McDowell, planet4589.org)",
   "url": "https://planet4589.org/space/gcat/",
   "license": "CC-BY 4.0"
  }
 ],
 "satellites": [
  {
   "norad": 63255,
   "name": "ICEYE-X50",
   "intl": "2025-052AX",
   "group": "sar",
   "gcat": {
    "class": "B",
    "category": "IMG-R",
    "owner": "ICEYE",
    "state": "FI"
   },
   "omm": {
    "OBJECT_NAME": "ICEYE-X50",
    "OBJECT_ID": "2025-052AX",
    "EPOCH": "2026-07-03T16:28:30.321120",
    "MEAN_MOTION": 14.95333144,
    "ECCENTRICITY": 0.00027782,
    "INCLINATION": 97.6871,
    "RA_OF_ASC_NODE": 76.2639,
    "ARG_OF_PERICENTER": 123.8572,
    "MEAN_ANOMALY": 236.2913,
    "EPHEMERIS_TYPE": 0,
    "CLASSIFICATION_TYPE": "U",
    "NORAD_CAT_ID": 63255,
    "ELEMENT_SET_NO": 999,
    "REV_AT_EPOCH": 7111,
    "BSTAR": 0.00015209627,
    "MEAN_MOTION_DOT": 0.0000162,
    "MEAN_MOTION_DDOT": 0
   }
  },
  {
   "norad": 63257,
   "name": "ICEYE-X51",
   "intl": "2025-052AZ",
   "group": "sar",
   "gcat": {
    "class": "B",
    "category": "IMG-R",
    "owner": "ICEUS",
    "state": "US"
   },
   "omm": {
    "OBJECT_NAME": "ICEYE-X51",
    "OBJECT_ID": "2025-052AZ",
    "EPOCH": "2026-07-02T19:00:03.766464",
    "MEAN_MOTION": 15.00859708,
    "ECCENTRICITY": 0.00019371,
    "INCLINATION": 97.7586,
    "RA_OF_ASC_NODE": 78.8563,
    "ARG_OF_PERICENTER": 71.9517,
    "MEAN_ANOMALY": 288.1918,
    "EPHEMERIS_TYPE": 0,
    "CLASSIFICATION_TYPE": "U",
    "NORAD_CAT_ID": 63257,
    "ELEMENT_SET_NO": 999,
    "REV_AT_EPOCH": 7114,
    "BSTAR": 0.00031445779,
    "MEAN_MOTION_DOT": 0.00003939,
    "MEAN_MOTION_DDOT": 0
   }
  },
  {
   "norad": 64572,
   "name": "ICEYE-X52",
   "intl": "2025-135AW",
   "group": "sar",
   "gcat": {
    "class": "B",
    "category": "IMG-R",
    "owner": "ICEYE",
    "state": "FI"
   },
   "omm": {
    "OBJECT_NAME": "ICEYE-X52",
    "OBJECT_ID": "2025-135AW",
    "EPOCH": "2026-07-03T14:49:08.545728",
    "MEAN_MOTION": 14.93623274,
    "ECCENTRICITY": 0.00004195,
    "INCLINATION": 97.7767,
    "RA_OF_ASC_NODE": 298.6866,
    "ARG_OF_PERICENTER": 280.6397,
    "MEAN_ANOMALY": 79.4776,
    "EPHEMERIS_TYPE": 0,
    "CLASSIFICATION_TYPE": "U",
    "NORAD_CAT_ID": 64572,
    "ELEMENT_SET_NO": 999,
    "REV_AT_EPOCH": 5633,
    "BSTAR": 0.00024100909,
    "MEAN_MOTION_DOT": 0.00002488,
    "MEAN_MOTION_DDOT": 0
   }
  },
  {
   "norad": 64584,
   "name": "ICEYE-X53",
   "intl": "2025-135BJ",
   "group": "sar",
   "gcat": {
    "class": "B",
    "category": "IMG-R",
    "owner": "ICEYE",
    "state": "FI"
   },
   "omm": {
    "OBJECT_NAME": "ICEYE-X53",
    "OBJECT_ID": "2025-135BJ",
    "EPOCH": "2026-07-03T14:59:29.442048",
    "MEAN_MOTION": 15.00839712,
    "ECCENTRICITY": 0.00014686,
    "INCLINATION": 97.7374,
    "RA_OF_ASC_NODE": 301.3372,
    "ARG_OF_PERICENTER": 164.3512,
    "MEAN_ANOMALY": 195.7757,
    "EPHEMERIS_TYPE": 0,
    "CLASSIFICATION_TYPE": "U",
    "NORAD_CAT_ID": 64584,
    "ELEMENT_SET_NO": 999,
    "REV_AT_EPOCH": 5654,
    "BSTAR": 0.000068688705,
    "MEAN_MOTION_DOT": 0.00000813,
    "MEAN_MOTION_DDOT": 0
   }
  },
  {
   "norad": 64570,
   "name": "ICEYE-X54",
   "intl": "2025-135AU",
   "group": "sar",
   "gcat": {
    "class": "B",
    "category": "IMG-R",
    "owner": "ICEYE",
    "state": "FI"
   },
   "omm": {
    "OBJECT_NAME": "ICEYE-X54",
    "OBJECT_ID": "2025-135AU",
    "EPOCH": "2026-07-03T15:04:08.138208",
    "MEAN_MOTION": 14.94645574,
    "ECCENTRICITY": 0.0001055,
    "INCLINATION": 97.7743,
    "RA_OF_ASC_NODE": 298.892,
    "ARG_OF_PERICENTER": 233.3935,
    "MEAN_ANOMALY": 126.7188,
    "EPHEMERIS_TYPE": 0,
    "CLASSIFICATION_TYPE": "U",
    "NORAD_CAT_ID": 64570,
    "ELEMENT_SET_NO": 999,
    "REV_AT_EPOCH": 5635,
    "BSTAR": 0.00035974985,
    "MEAN_MOTION_DOT": 0.00003841,
    "MEAN_MOTION_DDOT": 0
   }
  },
  {
   "norad": 64581,
   "name": "ICEYE-X55",
   "intl": "2025-135BF",
   "group": "sar",
   "gcat": {
    "class": "B",
    "category": "IMG-R",
    "owner": "ICEYE",
    "state": "FI"
   },
   "omm": {
    "OBJECT_NAME": "ICEYE-X55",
    "OBJECT_ID": "2025-135BF",
    "EPOCH": "2026-07-03T15:03:47.573280",
    "MEAN_MOTION": 14.95307749,
    "ECCENTRICITY": 0.00018865,
    "INCLINATION": 97.7764,
    "RA_OF_ASC_NODE": 299.2913,
    "ARG_OF_PERICENTER": 306.6368,
    "MEAN_ANOMALY": 53.4679,
    "EPHEMERIS_TYPE": 0,
    "CLASSIFICATION_TYPE": "U",
    "NORAD_CAT_ID": 64581,
    "ELEMENT_SET_NO": 999,
    "REV_AT_EPOCH": 5637,
    "BSTAR": 0.00028780436,
    "MEAN_MOTION_DOT": 0.00003114,
    "MEAN_MOTION_DDOT": 0
   }
  },
  {
   "norad": 64574,
   "name": "ICEYE-X56",
   "intl": "2025-135AY",
   "group": "sar",
   "gcat": {
    "class": "B",
    "category": "IMG-R",
    "owner": "ICEYE",
    "state": "FI"
   },
   "omm": {
    "OBJECT_NAME": "ICEYE-X56",
    "OBJECT_ID": "2025-135AY",
    "EPOCH": "2026-07-03T14:57:30.822624",
    "MEAN_MOTION": 14.95710639,
    "ECCENTRICITY": 0.00005318,
    "INCLINATION": 97.7768,
    "RA_OF_ASC_NODE": 299.4539,
    "ARG_OF_PERICENTER": 287.5691,
    "MEAN_ANOMALY": 72.5471,
    "EPHEMERIS_TYPE": 0,
    "CLASSIFICATION_TYPE": "U",
    "NORAD_CAT_ID": 64574,
    "ELEMENT_SET_NO": 999,
    "REV_AT_EPOCH": 5638,
    "BSTAR": 0.00028921207,
    "MEAN_MOTION_DOT": 0.00003162,
    "MEAN_MOTION_DDOT": 0
   }
  },
  {
   "norad": 64578,
   "name": "ICEYE-X57",
   "intl": "2025-135BC",
   "group": "sar",
   "gcat": {
    "class": "B",
    "category": "IMG-R",
    "owner": "ICEUS",
    "state": "US"
   },
   "omm": {
    "OBJECT_NAME": "ICEYE-X57",
    "OBJECT_ID": "2025-135BC",
    "EPOCH": "2026-07-03T14:25:05.172384",
    "MEAN_MOTION": 15.00862168,
    "ECCENTRICITY": 0.00020696,
    "INCLINATION": 97.7996,
    "RA_OF_ASC_NODE": 301.1139,
    "ARG_OF_PERICENTER": 61.2372,
    "MEAN_ANOMALY": 298.906,
    "EPHEMERIS_TYPE": 0,
    "CLASSIFICATION_TYPE": "U",
    "NORAD_CAT_ID": 64578,
    "ELEMENT_SET_NO": 999,
    "REV_AT_EPOCH": 5648,
    "BSTAR": 0.00044660342,
    "MEAN_MOTION_DOT": 0.00005621,
    "MEAN_MOTION_DDOT": 0
   }
  },
  {
   "norad": 66751,
   "name": "ICEYE-X58",
   "intl": "2025-276CP",
   "group": "sar",
   "gcat": {
    "class": "B",
    "category": "IMG-R",
    "owner": "ICEYE",
    "state": "FI"
   },
   "omm": {
    "OBJECT_NAME": "ICEYE-X58",
    "OBJECT_ID": "2025-276CP",
    "EPOCH": "2026-07-02T14:49:12.237600",
    "MEAN_MOTION": 15.17412464,
    "ECCENTRICITY": 0.00019957,
    "INCLINATION": 97.4202,
    "RA_OF_ASC_NODE": 256.7551,
    "ARG_OF_PERICENTER": 289.5925,
    "MEAN_ANOMALY": 70.5094,
    "EPHEMERIS_TYPE": 0,
    "CLASSIFICATION_TYPE": "U",
    "NORAD_CAT_ID": 66751,
    "ELEMENT_SET_NO": 999,
    "REV_AT_EPOCH": 3275,
    "BSTAR": 0.0001521332,
    "MEAN_MOTION_DOT": 0.00002975,
    "MEAN_MOTION_DDOT": 0
   }
  },
  {
   "norad": 66752,
   "name": "ICEYE-X59",
   "intl": "2025-276CQ",
   "group": "sar",
   "gcat": {
    "class": "B",
    "category": "IMG-R",
    "owner": "ELKED",
    "state": "GR"
   },
   "omm": {
    "OBJECT_NAME": "ICEYE-X59",
    "OBJECT_ID": "2025-276CQ",
    "EPOCH": "2026-07-02T11:27:37.213056",
    "MEAN_MOTION": 15.01058515,
    "ECCENTRICITY": 0.00005651,
    "INCLINATION": 97.4395,
    "RA_OF_ASC_NODE": 254.1257,
    "ARG_OF_PERICENTER": 266.7298,
    "MEAN_ANOMALY": 93.3862,
    "EPHEMERIS_TYPE": 0,
    "CLASSIFICATION_TYPE": "U",
    "NORAD_CAT_ID": 66752,
    "ELEMENT_SET_NO": 999,
    "REV_AT_EPOCH": 3256,
    "BSTAR": 0.00040748425,
    "MEAN_MOTION_DOT": 0.00005154,
    "MEAN_MOTION_DDOT": 0
   }
  }
 ]
}
